{
  "type": "FeatureCollection",
  "features": [
    {
      "type": "Feature",
      "properties": {
        "norad_id": 31074,
        "name": "FENGYUN 1C DEB",
        "group": "fengyun-1c-debris",
        "lat": 56.972808036091266,
        "lon": 88.8833403110495,
        "alt_km": 901.9058978426547,
        "timestamp": "2025-12-05T20:43:02.335493+00:00",
        "meta_object_name": "FENGYUN 1C DEB",
        "meta_object_id": "1999-025BFU",
        "meta_epoch": "2025-12-02T05:31:54.784416",
        "meta_mean_motion": 14.14072118,
        "meta_eccentricity": 0.0089961,
        "meta_inclination": 98.9589,
        "meta_ra_of_asc_node": 251.1985,
        "meta_arg_of_pericenter": 295.203,
        "meta_mean_anomaly": 63.9836,
        "meta_ephemeris_type": 0,
        "meta_classification_type": "U",
        "meta_norad_cat_id": 31074,
        "meta_element_set_no": 999,
        "meta_rev_at_epoch": 95431,
        "meta_bstar": 0.0031299,
        "meta_mean_motion_dot": 6.148e-05,
        "meta_mean_motion_ddot": 0,
        "tle_line1": "1 31074U 99025BFU 25336.23049519  .00006148  00000+0  31299-2 0  9996",
        "tle_line2": "2 31074  98.9589 251.1985 0089961 295.2030  63.9836 14.14072118954316"
      },
      "geometry": {
        "type": "Point",
        "coordinates": [
          88.8833403110495,
          56.972808036091266
        ]
      }
    },
    {
      "type": "Feature",
      "properties": {
        "norad_id": 31078,
        "name": "FENGYUN 1C DEB",
        "group": "fengyun-1c-debris",
        "lat": -77.10499265554816,
        "lon": 177.25942102584386,
        "alt_km": 827.785222154791,
        "timestamp": "2025-12-05T20:43:02.335503+00:00",
        "meta_object_name": "FENGYUN 1C DEB",
        "meta_object_id": "1999-025BFY",
        "meta_epoch": "2025-12-04T00:10:05.180160",
        "meta_mean_motion": 14.22040787,
        "meta_eccentricity": 0.01168076,
        "meta_inclination": 98.8693,
        "meta_ra_of_asc_node": 38.3965,
        "meta_arg_of_pericenter": 173.855,
        "meta_mean_anomaly": 308.0824,
        "meta_ephemeris_type": 0,
        "meta_classification_type": "U",
        "meta_norad_cat_id": 31078,
        "meta_element_set_no": 999,
        "meta_rev_at_epoch": 96768,
        "meta_bstar": 0.0010979293,
        "meta_mean_motion_dot": 2.558e-05,
        "meta_mean_motion_ddot": 0,
        "tle_line1": "1 31078U 99025BFY 25338.00700440  .00002558  00000+0  10979-2 0  9997",
        "tle_line2": "2 31078  98.8693  38.3965 0116807 173.8550 308.0824 14.22040787967686"
      },
      "geometry": {
        "type": "Point",
        "coordinates": [
          177.25942102584386,
          -77.10499265554816
        ]
      }
    },
    {
      "type": "Feature",
      "properties": {
        "norad_id": 31081,
        "name": "FENGYUN 1C DEB",
        "group": "fengyun-1c-debris",
        "lat": 62.47409659172451,
        "lon": -20.719169553940183,
        "alt_km": 899.9092124692279,
        "timestamp": "2025-12-05T20:43:02.335513+00:00",
        "meta_object_name": "FENGYUN 1C DEB",
        "meta_object_id": "1999-025BGB",
        "meta_epoch": "2025-12-04T06:55:14.879424",
        "meta_mean_motion": 14.06294521,
        "meta_eccentricity": 0.0047176,
        "meta_inclination": 98.7708,
        "meta_ra_of_asc_node": 354.9871,
        "meta_arg_of_pericenter": 255.2266,
        "meta_mean_anomaly": 120.0318,
        "meta_ephemeris_type": 0,
        "meta_classification_type": "U",
        "meta_norad_cat_id": 31081,
        "meta_element_set_no": 999,
        "meta_rev_at_epoch": 96342,
        "meta_bstar": 8.3325e-05,
        "meta_mean_motion_dot": 9.6e-07,
        "meta_mean_motion_ddot": 0,
        "tle_line1": "1 31081U 99025BGB 25338.28836666  .00000096  00000+0  83325-4 0  9993",
        "tle_line2": "2 31081  98.7708 354.9871 0047176 255.2266 120.0318 14.06294521963427"
      },
      "geometry": {
        "type": "Point",
        "coordinates": [
          -20.719169553940183,
          62.47409659172451
        ]
      }
    },
    {
      "type": "Feature",
      "properties": {
        "norad_id": 31083,
        "name": "FENGYUN 1C DEB",
        "group": "fengyun-1c-debris",
        "lat": 0.4539459953232204,
        "lon": -82.93455506920667,
        "alt_km": 708.6612084662283,
        "timestamp": "2025-12-05T20:43:02.335524+00:00",
        "meta_object_name": "FENGYUN 1C DEB",
        "meta_object_id": "1999-025BGD",
        "meta_epoch": "2025-12-05T06:53:26.990880",
        "meta_mean_motion": 14.61718196,
        "meta_eccentricity": 0.00304458,
        "meta_inclination": 98.6493,
        "meta_ra_of_asc_node": 96.394,
        "meta_arg_of_pericenter": 329.1488,
        "meta_mean_anomaly": 60.6411,
        "meta_ephemeris_type": 0,
        "meta_classification_type": "U",
        "meta_norad_cat_id": 31083,
        "meta_element_set_no": 999,
        "meta_rev_at_epoch": 97601,
        "meta_bstar": 0.0053001135,
        "meta_mean_motion_dot": 0.0002663,
        "meta_mean_motion_ddot": 0,
        "tle_line1": "1 31083U 99025BGD 25339.28711795  .00026630  00000+0  53001-2 0  9999",
        "tle_line2": "2 31083  98.6493  96.3940 0030445 329.1488  60.6411 14.61718196976013"
      },
      "geometry": {
        "type": "Point",
        "coordinates": [
          -82.93455506920667,
          0.4539459953232204
        ]
      }
    },
    {
      "type": "Feature",
      "properties": {
        "norad_id": 31085,
        "name": "FENGYUN 1C DEB",
        "group": "fengyun-1c-debris",
        "lat": 3.1937090476874537,
        "lon": 179.9186764495523,
        "alt_km": 741.2813599487754,
        "timestamp": "2025-12-05T20:43:02.335534+00:00",
        "meta_object_name": "FENGYUN 1C DEB",
        "meta_object_id": "1999-025BGF",
        "meta_epoch": "2025-12-03T20:04:52.146624",
        "meta_mean_motion": 14.30301039,
        "meta_eccentricity": 0.00876601,
        "meta_inclination": 98.9847,
        "meta_ra_of_asc_node": 178.3326,
        "meta_arg_of_pericenter": 43.8079,
        "meta_mean_anomaly": 331.3397,
        "meta_ephemeris_type": 0,
        "meta_classification_type": "U",
        "meta_norad_cat_id": 31085,
        "meta_element_set_no": 999,
        "meta_rev_at_epoch": 97589,
        "meta_bstar": 0.00014796606,
        "meta_mean_motion_dot": 3.54e-06,
        "meta_mean_motion_ddot": 0,
        "tle_line1": "1 31085U 99025BGF 25337.83671466  .00000354  00000+0  14797-3 0  9995",
        "tle_line2": "2 31085  98.9847 178.3326 0087660  43.8079 331.3397 14.30301039975893"
      },
      "geometry": {
        "type": "Point",
        "coordinates": [
          179.9186764495523,
          3.1937090476874537
        ]
      }
    },
    {
      "type": "Feature",
      "properties": {
        "norad_id": 31087,
        "name": "FENGYUN 1C DEB",
        "group": "fengyun-1c-debris",
        "lat": 57.70601597113019,
        "lon": -166.54970166984972,
        "alt_km": 806.4934884161794,
        "timestamp": "2025-12-05T20:43:02.335544+00:00",
        "meta_object_name": "FENGYUN 1C DEB",
        "meta_object_id": "1999-025BGH",
        "meta_epoch": "2025-12-03T12:59:41.576352",
        "meta_mean_motion": 14.6016091,
        "meta_eccentricity": 0.01725272,
        "meta_inclination": 98.1032,
        "meta_ra_of_asc_node": 358.1517,
        "meta_arg_of_pericenter": 319.9083,
        "meta_mean_anomaly": 203.5704,
        "meta_ephemeris_type": 0,
        "meta_classification_type": "U",
        "meta_norad_cat_id": 31087,
        "meta_element_set_no": 999,
        "meta_rev_at_epoch": 98635,
        "meta_bstar": 0.001258237,
        "meta_mean_motion_dot": 7.422e-05,
        "meta_mean_motion_ddot": 0,
        "tle_line1": "1 31087U 99025BGH 25337.54145343  .00007422  00000+0  12582-2 0  9997",
        "tle_line2": "2 31087  98.1032 358.1517 0172527 319.9083 203.5704 14.60160910986351"
      },
      "geometry": {
        "type": "Point",
        "coordinates": [
          -166.54970166984972,
          57.70601597113019
        ]
      }
    },
    {
      "type": "Feature",
      "properties": {
        "norad_id": 31088,
        "name": "FENGYUN 1C DEB",
        "group": "fengyun-1c-debris",
        "lat": 79.49724590231068,
        "lon": -23.975893297936654,
        "alt_km": 768.0441532606092,
        "timestamp": "2025-12-05T20:43:02.335565+00:00",
        "meta_object_name": "FENGYUN 1C DEB",
        "meta_object_id": "1999-025BGJ",
        "meta_epoch": "2025-12-03T02:54:23.161824",
        "meta_mean_motion": 14.28572278,
        "meta_eccentricity": 0.00292595,
        "meta_inclination": 99.413,
        "meta_ra_of_asc_node": 36.553,
        "meta_arg_of_pericenter": 89.3587,
        "meta_mean_anomaly": 301.3086,
        "meta_ephemeris_type": 0,
        "meta_classification_type": "U",
        "meta_norad_cat_id": 31088,
        "meta_element_set_no": 999,
        "meta_rev_at_epoch": 96412,
        "meta_bstar": 0.0021893193,
        "meta_mean_motion_dot": 5.471e-05,
        "meta_mean_motion_ddot": 0,
        "tle_line1": "1 31088U 99025BGJ 25337.12110141  .00005471  00000+0  21893-2 0  9997",
        "tle_line2": "2 31088  99.4130  36.5530 0029259  89.3587 301.3086 14.28572278964126"
      },
      "geometry": {
        "type": "Point",
        "coordinates": [
          -23.975893297936654,
          79.49724590231068
        ]
      }
    }
  ]
}